SL-16 R/B               
1 28353U 04021B   25214.45697965 -.00000110  00000+0 -32416-4 0  9996
2 28353  71.0022 332.5560 0005049 347.2791  12.8203 14.14550652 91830
CZ-4B R/B               
1 28415U 04035C   25214.09862247  .00007462  00000+0  29853-3 0  9992
2 28415  97.3777 246.3217 0035899  28.1660 332.1510 15.24770924146405
CZ-2C R/B               
1 28480U 04046B   25214.35717403  .00000155  00000+0  72476-4 0  9990
2 28480  98.1917 138.0396 0140970  83.5240 278.1971 14.26849987 77223
ARIANE 5 R/B            
1 28499U 04049H   25214.50012572  .00000644  00000+0  78758-4 0  9997
2 28499  98.2397  10.1868 0084792 342.1728  17.6515 14.84594145113266
CZ-2D R/B               
1 28738U 05024B   25214.47552805  .00018110  00000+0  38099-3 0  9991
2 28738  97.3689 219.2179 0008388 107.9350 252.2814 15.45321473105785
ALOS (DAICHI)           
1 28931U 06002A   25214.43093778  .00001572  00000+0  27743-3 0  9996
2 28931  98.0865 167.0913 0000682  83.9720 276.1563 14.68854879 41288
H-2A R/B                
1 28932U 06002B   25214.30704231  .00006871  00000+0  39496-3 0  9991
2 28932  98.2162 338.7429 0056917 265.4345  94.0380 15.11476916 61245
RESURS-DK 1             
1 29228U 06021A   25214.81565783  .00002163  00000+0  13487-3 0  9996
2 29228  69.9334  82.4910 0001788 102.2902 257.8463 15.11174256 54460
CZ-4B R/B               
1 29507U 06046C   25214.73291947  .00004281  00000+0  23519-3 0  9992
2 29507  97.5927 255.2273 0033890 306.0739  53.7355 15.14172699 26923
CZ-2C R/B               
1 31114U 07010B   25214.75825477  .00000113  00000+0  70958-4 0  9994
2 31114  98.3842 334.1599 0058540 209.8240 149.9597 14.20141880948652
COSMO-SKYMED 1          
1 31598U 07023A   25214.87701126  .00000805  00000+0  79800-4 0  9994
2 31598  97.8890  39.5088 0001425  86.7234 273.4149 14.94622178982265
GENESIS 2               
1 31789U 07028A   25214.86059483  .00215212  24522-4  60119-3 0  9994
2 31789  64.4670 221.0348 0024567 301.9036  57.9733 15.92923062  1579
COSMOS 2428             
1 31792U 07029A   25214.48861576  .00000211  00000+0  13891-3 0  9997
2 31792  70.9443 303.4838 0005246 233.5295 126.5343 14.12896685933139
SL-16 R/B               
1 31793U 07029B   25214.61784872 -.00000296  00000+0 -12864-3 0  9990
2 31793  70.9747 272.8739 0002736 278.4749 233.3806 14.14790052934381
KORONAS-FOTON           
1 33504U 09003A   25214.25305900  .00009786  00000+0  26484-3 0  9991
2 33504  82.4336 142.9223 0010521 215.3190 144.7358 15.37481940911966
CZ-2C R/B               
1 37731U 11030B   25214.47991662  .00001504  00000+0  19955-3 0  9995
2 37731  97.8179 171.7593 0053061 345.3360 128.3633 14.80328337757651
H-2A R/B                
1 38341U 12025E   25214.41126237  .00002932  00000+0  28118-3 0  9997
2 38341  98.4381 159.7618 0044985 310.7245  49.0070 14.93265538715473
SHIJIAN-16 (SJ-16)      
1 39358U 13057A   25214.74510162  .00000787  00000+0  81378-4 0  9996
2 39358  74.9697 239.2760 0018332 284.1639  75.7512 14.91475112638921
SL-4 R/B                
1 39679U 14021B   25214.71532658  .00008246  00000+0  22473-3 0  9993
2 39679  51.6095 319.8699 0111432  28.7134 331.9921 15.32369458622941
ALOS-2                  
1 39766U 14029A   25214.72370693  .00000988  00000+0  13914-3 0  9993
2 39766  97.9227 311.4599 0001507  98.2665 261.8718 14.79477828604527
YAOGAN-29               
1 41038U 15069A   25215.16194610  .00000457  00000+0  63342-4 0  9997
2 41038  98.0338 237.8007 0001631  34.7009 325.4310 14.82684760523497
ASTRO-H (HITOMI)        
1 41337U 16012A   25214.70631917  .00002953  00000+0  17994-3 0  9997
2 41337  31.0013 327.7746 0009974 293.4494  66.5095 15.08268744519122
HXMT (HUIYAN)           
1 42758U 17034A   25214.88039411  .00004911  00000+0  27237-3 0  9997
2 42758  43.0135 150.1444 0035538 293.2925  66.4183 15.14234881449359
CZ-2C R/B               
1 43521U 18054D   25214.60528736  .00032634  00000+0  45798-3 0  9997
2 43521  35.1392 341.6133 0031573 330.2848  29.6086 15.55101686394373
SAOCOM 1A               
1 43641U 18076A   25214.82374020  .00000428  00000+0  60306-4 0  9992
2 43641  97.8897  41.1303 0001395  90.6760 269.4613 14.82159944368944
H-2A R/B                
1 43682U 18084L   25214.42859604  .00014147  00000+0  45713-3 0  9995
2 43682  98.8808  21.7860 0031899  59.8362 300.6029 15.31754372372115
SAOCOM 1B               
1 46265U 20059A   25214.78750985  .00000419  00000+0  59185-4 0  9997
2 46265  97.8902  40.1992 0001407  91.2096 268.9278 14.82149750266337
CSS (TIANHE)            
1 48274U 21035A   25214.86020678  .00022142  00000+0  29693-3 0  9999
2 48274  41.4647  97.8102 0004964  48.1375 311.9885 15.57420447243431
COSMOS 2550             
1 48865U 21056A   25214.81113715  .00003978  00000+0  12665-3 0  9995
2 48865  67.1440 343.0629 0008433 270.1067  89.9121 15.33832070229907
CZ-2C R/B               
1 52794U 22058K   25214.55252472  .00014547  00000+0  33413-3 0  9997
2 52794  50.1944 353.4727 0055099   6.6563 353.5122 15.41313814176205
GSLV R/B                
1 54149U 22138AN  25214.50635882  .00001957  00000+0  17573-3 0  9997
2 54149  87.3763 239.7444 0020425 222.2475 137.7183 14.95016011151161
XRISM                   
1 57800U 23137A   25214.56978154  .00003418  00000+0  20819-3 0  9993
2 57800  31.0015 257.5603 0007870 358.7515   1.3102 15.08470202104647
ACS3                    
1 59588U 24077B   25214.47799769  .00013357  00000+0  12738-1 0  9997
2 59588  97.4310 198.9194 0073759  39.6887 320.9636 13.79421250 63871
